240P-B/NEAT,e,23.5326,74.9115,352.0769,3.862005,0.1298628,0.45064442,11.4281,03/18.0/2026,2000,g 15.5,4.0
# From MPC191615
241P/LINEAR,e,21.0946,305.3605,111.6935,4.929238,0.0900605,0.60976593,152.7492,03/18.0/2026,2000,g 13.5,4.0
# From MPEC 2026-F34
242P/Spahr,e,32.4400,180.1452,245.0894,5.537412,0.0756387,0.28268517,33.9989,03/18.0/2026,2000,g  8.0,4.0
# From MPEC 2026-E43
243P/NEAT,e,7.6444,87.5745,283.7920,3.825245,0.1317393,0.36004317,2.6869,03/18.0/2026,2000,g 12.5,4.0
# From MPC191615
244P/Scotti,e,2.2570,353.9978,93.6483,4.906845,0.0906777,0.19962622,110.0146,03/18.0/2026,2000,g  9.0,4.0
# From MPC191615
245P/WISE,e,21.1712,316.6656,316.6980,4.054325,0.1207331,0.45598059,358.4152,03/18.0/2026,2000,g 14.0,4.0
# From MPC191616
246P/NEAT,e,17.1943,73.9115,184.8012,4.335672,0.1091740,0.21016987,215.6109,03/18.0/2026,2000,g 10.5,4.0
# From MPC191616
247P/LINEAR,e,13.6595,53.9959,47.5239,3.962329,0.1249621,0.62559299,332.2616,03/18.0/2026,2000,g 16.5,2.0
# From MPEC 2026-E44
248P/Gibbs,e,6.3506,207.7629,210.0167,5.991901,0.0671981,0.63993022,12.3685,03/18.0/2026,2000,g 14.0,4.0
# From MPC191616
249P/LINEAR,e,8.3252,238.6653,66.2333,2.772570,0.2134914,0.81922613,87.3431,03/18.0/2026,2000,g 15.5,4.0
# From MPEC 2026-E44
250P/Larson,e,13.1518,73.3004,45.7099,3.775604,0.1343459,0.39811346,41.0136,03/18.0/2026,2000,g 14.5,4.0
# From MPC191616
251P/LINEAR,e,23.3915,219.3367,31.1628,3.510905,0.1498220,0.50417312,114.4631,03/18.0/2026,2000,g 16.5,2.0
# From MPC191616
252P/LINEAR,e,10.4206,190.9071,343.3680,3.051860,0.1848661,0.67119222,316.5982,03/18.0/2026,2000,g 17.5,4.0
# From MPC191616
253P/PANSTARRS,e,4.9532,146.7889,230.7055,3.461956,0.1530107,0.41594861,78.4999,03/18.0/2026,2000,g 14.5,4.0
# From MPEC 2026-E44
254P/McNaught,e,32.5356,129.1745,219.6776,4.620955,0.0992217,0.31824089,198.2506,03/18.0/2026,2000,g 11.0,4.0
# From MPC191616
255P/Levy,e,13.4259,275.6452,186.0406,2.941773,0.1953396,0.71202500,251.3690,03/18.0/2026,2000,g 20.0,4.0
# From MPC191617
256P/LINEAR,e,27.6224,81.3081,124.0401,4.633645,0.0988143,0.41830369,108.8819,03/18.0/2026,2000,g 14.0,2.0
# From MPC191617
257P/Catalina,e,20.2125,207.7332,117.6813,3.769080,0.1346949,0.42868140,271.8297,03/18.0/2026,2000,g 11.5,4.0
# From MPC191617
258P/PANSTARRS,e,6.7511,126.2353,25.6861,4.387090,0.1072604,0.20992200,224.8701,03/18.0/2026,2000,g 13.0,4.0
# From MPC191617
259P/Garradd,e,15.8960,51.4359,257.3803,2.729952,0.2185101,0.33877292,327.8854,03/18.0/2026,2000,g 15.5,4.0
# From MPC191617
260P/McNaught,e,15.0391,349.2723,18.5145,3.623508,0.1428928,0.60868325,339.9937,03/18.0/2026,2000,g 13.5,4.0
# From MPEC 2026-E44
261P/Larson,e,6.0734,291.0500,67.3680,3.488422,0.1512727,0.42260294,12.1903,03/18.0/2026,2000,g 14.0,4.0
# From MPC191617
262P/McNaught-Russell,e,29.2456,217.8539,171.0924,6.869979,0.0547357,0.81562904,265.0935,03/18.0/2026,2000,g 13.5,4.0
# From MPC191617
263P/Gibbs,e,11.5263,105.5018,35.0356,3.040428,0.1859097,0.59425697,212.2508,03/18.0/2026,2000,g 18.0,4.0
# From MPC191617
264P/Larsen,e,25.5384,218.9492,341.4412,4.038858,0.1214272,0.33705445,315.0772,03/18.0/2026,2000,g 13.0,4.0
# From MPC191617
265P/LINEAR,e,14.3302,342.8713,33.6066,4.261895,0.1120211,0.64632683,208.8136,03/18.0/2026,2000,g 14.5,4.0
# From MPC191618
266P/Christensen,e,3.4285,4.9831,97.8247,3.527666,0.1487555,0.34067546,320.5934,03/18.0/2026,2000,g 12.5,4.0
# From MPC191618
267P/LONEOS,e,6.1405,228.3430,114.2846,3.204148,0.1718443,0.61593731,118.8674,03/18.0/2026,2000,g 19.5,4.0
# From MPC191618
268P/Bernardi,e,15.6613,125.6285,0.0564,4.592864,0.1001334,0.47456051,45.5029,03/18.0/2026,2000,g 14.0,4.0
# From MPC191618
269P/Jedicke,e,7.0824,241.7431,225.8019,7.056493,0.0525800,0.43370678,219.4527,03/18.0/2026,2000,g 10.0,4.0
# From MPC191618
270P/Gehrels,e,2.9246,223.0214,209.9730,6.647130,0.0575112,0.47009182,267.2154,03/18.0/2026,2000,g  8.0,4.0
# From MPC191618
271P/vanHouten-Lemmon,e,6.8631,9.2139,36.6962,7.033200,0.0528414,0.39548817,243.8936,03/18.0/2026,2000,g 11.0,4.0
# From MPC191618
272P/NEAT,e,18.0834,109.4391,27.9076,4.462112,0.1045667,0.45568634,140.0166,03/18.0/2026,2000,g 16.0,2.0
# From MPC191618
273P/Pons-Gambart,e,136.1842,320.3430,20.0891,31.88196,0.0054750,0.97476166,0.0000,12/22.1892/2012,2000,g 11.5,4.0
# From MPC191618
274P/Tombaugh-Tenagra,e,15.8183,81.3140,38.5251,4.378752,0.1075669,0.44033612,154.7178,03/18.0/2026,2000,g 13.0,4.0
# From MPC191618
275P/Hermann,e,21.2489,348.7165,173.8328,5.802253,0.0705195,0.71402697,344.2103,03/18.0/2026,2000,g 15.0,4.0
# From MPEC 2026-E44
276P/Vorobjov,e,14.7231,210.8010,199.9728,5.390181,0.0787588,0.27681482,36.2568,03/18.0/2026,2000,g 11.5,4.0
# From MPC191619
277P/LINEAR,e,16.7927,276.2598,152.4538,3.853502,0.1302929,0.50625302,247.7918,03/18.0/2026,2000,g 14.0,4.0
# From MPC191619
278P/McNaught,e,6.6486,10.6202,243.4307,3.612699,0.1435346,0.45479101,281.5541,03/18.0/2026,2000,g 14.0,4.0
# From MPC191619
279P/LaSagra,e,5.0553,346.0917,5.5590,3.566264,0.1463470,0.39977957,155.7781,03/18.0/2026,2000,g 14.0,4.0
# From MPC191619
280P/Larsen,e,11.7753,131.3768,104.5774,4.522507,0.1024791,0.41707060,98.0299,03/18.0/2026,2000,g 12.5,4.0
# From MPC191619
281P/MOSS,e,4.7174,87.1685,27.1675,4.889137,0.0911708,0.17389370,103.6298,03/18.0/2026,2000,g 11.0,4.0
# From MPC191619
283P/Spacewatch,e,14.4716,161.1281,22.1549,4.130273,0.1174183,0.48549752,193.8049,03/18.0/2026,2000,g 16.0,2.0
# From MPC191619
284P/McNaught,e,11.8514,144.2585,202.4317,3.679824,0.1396251,0.37409678,230.3449,03/18.0/2026,2000,g 13.0,4.0
# From MPC191619
285P/LINEAR,e,25.0294,185.5179,178.3668,4.504745,0.1030858,0.61785480,119.7490,03/18.0/2026,2000,g 15.0,4.0
# From MPC191619
286P/Christensen,e,17.1900,283.5242,23.2834,4.048147,0.1210095,0.43942267,169.7103,03/18.0/2026,2000,g 14.0,4.0
# From MPC191620
287P/Christensen,e,16.5044,138.1566,192.4944,4.218772,0.1137431,0.27031258,111.0535,03/18.0/2026,2000,g 13.5,4.0
# From MPC133426
288P/,e,3.2381,83.1077,280.2346,3.051253,0.1849212,0.19938639,273.4573,03/18.0/2026,2000,g 16.0,2.0
# From MPC191620
289P/Blanpain,e,5.8999,68.8926,9.8826,3.043741,0.1856062,0.68638060,62.6788,03/18.0/2026,2000,g 19.0,4.0
# From MPC191620
290P/Jager,e,20.0105,302.6414,181.9160,6.212416,0.0636522,0.62807330,282.1823,03/18.0/2026,2000,g 10.5,4.0
# From MPC191620
291P/NEAT,e,6.3090,237.6685,173.5892,4.536049,0.1020205,0.43355803,107.0439,03/18.0/2026,2000,g 13.0,4.0
# From MPC191620
292P/Li,e,24.3208,90.8952,319.6727,6.094627,0.0655063,0.58967097,289.1137,03/18.0/2026,2000,g 12.5,4.0
# From MPC191620
293P/Spacewatch,e,9.0616,78.3858,41.0033,3.636522,0.1421264,0.41968707,271.7285,03/18.0/2026,2000,g 14.5,4.0
# From MPC191620
294P/LINEAR,e,17.7434,309.5986,237.5926,3.190829,0.1729214,0.60103040,37.8344,03/18.0/2026,2000,g 15.5,4.0
# From MPC191620
295P/LINEAR,e,21.0880,7.3782,73.0696,5.296502,0.0808575,0.61755621,349.7495,03/18.0/2026,2000,g 12.0,4.0
# From MPC191620
296P/Garradd,e,25.3436,263.4696,350.5925,3.462681,0.1529626,0.48703649,303.7953,03/18.0/2026,2000,g 14.0,4.0
# From MPC191620
297P/Beshore,e,11.2867,89.9888,145.1588,3.568954,0.1461816,0.27744994,273.8401,03/18.0/2026,2000,g 15.0,4.0
# From MPC191621
298P/Christensen,e,7.8733,52.7815,100.6407,3.587788,0.1450320,0.38716662,292.7600,03/18.0/2026,2000,g 15.0,4.0
# From MPC191621
299P/Catalina-PANSTARRS,e,10.4683,271.5745,323.5589,4.387582,0.1072423,0.28102840,73.6975,03/18.0/2026,2000,g 11.5,4.0
# From MPC191621
300P/Catalina,e,5.6758,95.6116,222.8846,2.695553,0.2227061,0.69267040,238.7101,03/18.0/2026,2000,g 16.0,4.0
# From MPC191621
301P/LINEAR-NEAT,e,10.3255,351.1202,193.3515,5.754775,0.0713940,0.58655928,303.5524,03/18.0/2026,2000,g 13.0,4.0
# From MPEC 2026-E43
302P/Lemmon-PANSTARRS,e,6.0356,121.7168,208.5920,4.265318,0.1118863,0.22899567,41.8246,03/18.0/2026,2000,g 12.5,4.0
# From MPC191621
303P/NEAT,e,7.0168,347.9058,357.0561,5.037434,0.0871746,0.51000609,2.2733,03/18.0/2026,2000,g 13.5,4.0
# From MPC191621
304P/Ory,e,2.6065,58.9008,335.3273,3.148765,0.1763980,0.60074516,359.9634,03/18.0/2026,2000,g 16.5,4.0
# From MPC191621
305P/Skiff,e,11.6701,240.0672,147.3679,4.630640,0.0989105,0.69400765,48.0631,03/18.0/2026,2000,g 18.0,4.0
# From MPC191621
306P/LINEAR,e,8.3020,341.3284,0.9488,3.125234,0.1783940,0.59259349,40.7319,03/18.0/2026,2000,g 19.0,4.0
# From MPC191621
307P/LINEAR,e,4.4307,158.0464,222.3065,5.791434,0.0707172,0.67483263,289.6897,03/18.0/2026,2000,g 15.0,4.0
# From MPC191622
308P/Lagerkvist-Carsenty,e,4.8528,63.0379,333.8210,6.603216,0.0580859,0.36364162,230.0453,03/18.0/2026,2000,g 13.0,2.0
# From MPC191622
309P/LINEAR,e,17.0150,10.1375,49.9425,4.375387,0.1076910,0.61802957,77.4462,03/18.0/2026,2000,g 15.0,4.0
# From MPC191622
310P/Hill,e,13.1193,8.8846,31.5094,4.180592,0.1153048,0.42183886,101.1366,03/18.0/2026,2000,g 13.5,4.0
# From MPC191622
311P/PANSTARRS,e,4.9713,279.1681,144.3314,2.188864,0.3043518,0.11536498,245.3103,03/18.0/2026,2000,g 17.0,4.0
# From MPC191622
312P/NEAT,e,19.7455,144.6246,207.6747,3.473255,0.1522647,0.42650988,304.8013,03/18.0/2026,2000,g 16.0,4.0
# From MPC191622
313P/Gibbs,e,10.9811,105.9248,255.0020,3.162267,0.1752695,0.23422078,18.4395,03/18.0/2026,2000,g 15.0,4.0
# From MPC191622
314P/Montani,e,3.9916,267.6192,213.9085,7.248218,0.0505077,0.41882183,173.7421,03/18.0/2026,2000,g  9.5,4.0
# From MPC191622
315P/LONEOS,e,17.7384,68.6174,65.9868,4.934031,0.0899293,0.52228647,305.2808,03/18.0/2026,2000,g 11.0,4.0
# From MPC191622
316P/LONEOS-Christensen,e,9.8642,245.7880,186.2336,4.393997,0.1070076,0.15498077,57.3095,03/18.0/2026,2000,g 13.5,4.0
# From MPC191622
317P/WISE,e,11.9746,275.4719,334.8815,2.959774,0.1935602,0.57207102,26.7401,03/18.0/2026,2000,g 17.5,4.0
# From MPC191623
318P/McNaught-Hartley,e,17.8689,35.5820,313.3167,7.517454,0.0478187,0.67266867,181.8285,03/18.0/2026,2000,g  8.5,6.0
# From MPC191623
319P/Catalina-McNaught,e,15.0987,111.3685,203.5605,3.561201,0.1466592,0.66717910,212.4581,03/18.0/2026,2000,g 15.0,4.0
# From MPC191623
